0 ARIANE 5 DEB (SYLDA)
1 36584U 10021D   13282.32987502  .00011593  00000-0  33867-2 0  8595
2 36584 002.5338 158.3406 6677664 293.7410 351.0343 03.06226406 32063
0 ARIANE 5 DEB (SYLDA)
1 36584U 10021D   13283.24616900  .00011842  00000-0  34610-2 0  8604
2 36584 002.5347 157.7671 6677350 294.8527 281.1271 03.06253962 32096
0 ARIANE 5 DEB (SYLDA)
1 36584U 10021D   13285.50642361  .00012836  00000-0  37209-2 0  8628
2 36584 002.5378 156.3413 6676960 297.5979 253.1743 03.06301178 32160
0 ARIANE 5 DEB (SYLDA)
1 36584U 10021D   13286.24574916  .00012308  00000-0  35575-2 0  8639
2 36584 002.5386 155.8763 6676861 298.5021 348.4117 03.06315473 32188
0 ARIANE 5 DEB (SYLDA)
1 36584U 10021D   13287.15505806  .00013362  00000-0  38825-2 0  8645
2 36584 002.5390 155.3226 6676551 299.5893 271.1603 03.06335290 32211
0 ARIANE 5 DEB (SYLDA)
1 36584U 10021D   13288.36985552  .00015427  00000-0  44802-2 0  8656
2 36584 002.5402 154.5727 6676292 301.0594 170.8835 03.06380920 32257
0 ARIANE 5 DEB (SYLDA)
1 36584U 10021D   13290.13383080  .00014270  00000-0  41406-2 0  8665
2 36584 002.5422 153.4728 6676085 303.1973 316.5981 03.06430583 32300
0 ARIANE 5 DEB (SYLDA)
1 36584U 10021D   13292.11326470  .00014475  00000-0  42178-2 0  8670
2 36584 002.5450 152.2256 6675858 305.6097 340.3372 03.06477697 32367
0 ARIANE 5 DEB (SYLDA)
1 36584U 10021D   13293.39094014  .00014592  00000-0  42658-2 0  8681
2 36584 002.5454 151.4787 6675596 307.1130 310.0632 03.06517343 32406
0 ARIANE 5 DEB (SYLDA)
1 36584U 10021D   13293.78552494  .00014878  00000-0  43564-2 0  8690
2 36584 002.5460 151.2326 6675519 307.5864 025.4770 03.06524804 32425
0 ARIANE 5 DEB (SYLDA)
1 36584U 10021D   13295.29726218  .00014653  00000-0  42841-2 0  8705
2 36584 002.5478 150.2999 6675188 309.4196 253.6914 03.06582668 32461
0 ARIANE 5 DEB (SYLDA)
1 36584U 10021D   13295.73848850  .00013778  00000-0  40038-2 0  8715
2 36584 002.5486 150.0249 6675269 309.9664 020.6188 03.06597424 32484
